{"fetched_at":"2026-03-29T16:36:15Z","count":15609,"tles":[{"name":"STARLINK-4303","line1":"1 53544U 22101T   26087.89808361  .00003633  00000+0  24620-3 0  9994","line2":"2 53544  53.2169 337.8934 0001415  86.5746 273.5408 15.08848001199871","category":"Starlink"}]}